[{"OBJECT_NAME":"LAPAN-A3","OBJECT_ID":"2016-040E","EPOCH":"2026-03-09T23:01:57.724896","MEAN_MOTION":15.3238951,"ECCENTRICITY":0.00109839,"INCLINATION":97.1488,"RA_OF_ASC_NODE":68.4254,"ARG_OF_PERICENTER":22.062,"MEAN_ANOMALY":338.1093,"EPHEMERIS_TYPE":0,"CLASSIFICATION_TYPE":"U","NORAD_CAT_ID":41603,"ELEMENT_SET_NO":999,"REV_AT_EPOCH":53961,"BSTAR":0.00017567445,"MEAN_MOTION_DOT":5.428e-5,"MEAN_MOTION_DDOT":0},{"OBJECT_NAME":"STARLINK-32596","OBJECT_ID":"2024-239R","EPOCH":"2026-03-09T15:22:27.353568","MEAN_MOTION":15.3019764,"ECCENTRICITY":0.0001175,"INCLINATION":53.1574,"RA_OF_ASC_NODE":194.3407,"ARG_OF_PERICENTER":72.0115,"MEAN_ANOMALY":288.1014,"EPHEMERIS_TYPE":0,"CLASSIFICATION_TYPE":"U","NORAD_CAT_ID":62316,"ELEMENT_SET_NO":999,"REV_AT_EPOCH":6937,"BSTAR":0.0010551,"MEAN_MOTION_DOT":0.00031017,"MEAN_MOTION_DDOT":0}]
